[{"OBJECT_NAME":"HUBBLE 6","OBJECT_ID":"2025-135AL","EPOCH":"2026-03-09T21:06:21.636576","MEAN_MOTION":14.92986076,"ECCENTRICITY":0.00015628,"INCLINATION":97.7627,"RA_OF_ASC_NODE":184.2614,"ARG_OF_PERICENTER":112.5414,"MEAN_ANOMALY":247.5971,"EPHEMERIS_TYPE":0,"CLASSIFICATION_TYPE":"U","NORAD_CAT_ID":64562,"ELEMENT_SET_NO":999,"REV_AT_EPOCH":3905,"BSTAR":0.00028361894,"MEAN_MOTION_DOT":2.891e-5,"MEAN_MOTION_DDOT":0},{"OBJECT_NAME":"CZ-6A DEB","OBJECT_ID":"2024-140FB","EPOCH":"2026-03-09T14:48:01.661760","MEAN_MOTION":15.0628726,"ECCENTRICITY":0.0079054,"INCLINATION":89.1878,"RA_OF_ASC_NODE":293.0208,"ARG_OF_PERICENTER":138.3366,"MEAN_ANOMALY":222.3932,"EPHEMERIS_TYPE":0,"CLASSIFICATION_TYPE":"U","NORAD_CAT_ID":60776,"ELEMENT_SET_NO":999,"REV_AT_EPOCH":8515,"BSTAR":0.002571,"MEAN_MOTION_DOT":0.00040709,"MEAN_MOTION_DDOT":0}]
